[{"OBJECT_NAME":"STARLINK-4469","OBJECT_ID":"2022-105K","EPOCH":"2026-03-10T00:00:02.999808","MEAN_MOTION":15.87203746,"ECCENTRICITY":0.00018928,"INCLINATION":97.6287,"RA_OF_ASC_NODE":334.7133,"ARG_OF_PERICENTER":120.3376,"MEAN_ANOMALY":351.3962,"EPHEMERIS_TYPE":0,"CLASSIFICATION_TYPE":"U","NORAD_CAT_ID":53657,"ELEMENT_SET_NO":999,"REV_AT_EPOCH":601,"BSTAR":0.0021767103,"MEAN_MOTION_DOT":0.00603284,"MEAN_MOTION_DDOT":0},{"OBJECT_NAME":"STARLINK-36711","OBJECT_ID":"2026-041A","EPOCH":"2026-03-09T22:00:01.999584","MEAN_MOTION":15.90955583,"ECCENTRICITY":4.964e-5,"INCLINATION":53.1594,"RA_OF_ASC_NODE":61.1207,"ARG_OF_PERICENTER":98.3198,"MEAN_ANOMALY":219.7346,"EPHEMERIS_TYPE":0,"CLASSIFICATION_TYPE":"U","NORAD_CAT_ID":68040,"ELEMENT_SET_NO":999,"REV_AT_EPOCH":241,"BSTAR":-0.0050010888,"MEAN_MOTION_DOT":-0.01602939,"MEAN_MOTION_DDOT":0.00071535621}]
